1 27424U 02022A   12038.76069822 +.00000460 +00000-0 +11223-3 0 02084
2 27424 098.2216 341.0961 0001203 082.7374 277.3956 14.57092402519378